IRIDIUM 36 [-]          
1 24967U 97056C   23335.76239217  .00000992  00000+0  33141-3 0  9992
2 24967  86.3987  49.5543 0002173  88.2481 271.8965 14.36534353371304
IRIDIUM 39 [-]          
1 25042U 97069D   23334.81468795  .00001910  00000+0  51296-3 0  9993
2 25042  86.3909  92.8656 0019488  34.7545 325.4927 14.47537624367533
IRIDIUM 38 [-]          
1 25043U 97069E   23334.92752817  .00001097  00000+0  36369-3 0  9997
2 25043  86.3946 110.3922 0003169 128.3236 231.8246 14.36990408365154
IRIDIUM 42 [-]          
1 25077U 97077A   23334.95390848  .00000245  00000+0  78821-4 0  9992
2 25077  86.3949 115.8637 0002359 109.3527 250.7924 14.35290056360237
IRIDIUM 44 [-]          
1 25078U 97077B   23334.81734544  .00001330  00000+0  42388-3 0  9997
2 25078  86.3944  99.3568 0003884  86.3746 273.7897 14.39099570362534
IRIDIUM 45 [-]          
1 25104U 97082A   23334.48743920  .00016841  00000+0  10675-2 0  9990
2 25104  86.3735 315.5527 0172995 242.2860 116.0731 14.97179989367178
IRIDIUM 24 [-]          
1 25105U 97082B   23335.01169878  .00001112  00000+0  34068-3 0  9993
2 25105  86.3887 319.2133 0013083 132.7910 227.4392 14.40858020362197
IRIDIUM 51 [-]          
1 25262U 98018A   23335.50858726  .00015568  00000+0  84089-3 0  9996
2 25262  86.3896 325.4776 0160390 190.6296 169.1538 15.04112295361705
